COSMOS 2251 DEB         
1 34882U 93036ACV 17345.52029358  .00000073  00000-0  22032-4 0  9993
2 34882  74.0498  25.7558 0088640 183.7240 176.3277 14.57351970462694
